COSMOS 2251 DEB         
1 34857U 93036ACB 26087.95573976  .00003590  00000+0  73495-3 0  9999
2 34857  74.0131 264.0577 0064240   1.3236 159.7610 14.59872203894503
COSMOS 2251 DEB         
1 34859U 93036ACD 26087.04338943  .00297951  00000+0  63337-2 0  9993
2 34859  74.0221 117.1060 0015168 292.4957  67.4646 15.43674327899643
COSMOS 2251 DEB         
1 34861U 93036ACF 26087.73760936  .00069074  00000+0  36069-2 0  9998
2 34861  74.0088 192.1152 0003623 300.3214 211.2193 15.15559935896919
COSMOS 2251 DEB         
1 34874U 93036ACM 26087.69836691  .00002664  00000+0  89454-3 0  9998
2 34874  74.0375 239.0569 0051755 239.3505 139.8423 14.36941519885664
COSMOS 2251 DEB         
1 34875U 93036ACN 26087.07606782  .00001274  00000+0  34023-3 0  9995
2 34875  74.0446 320.7924 0014349  58.9771  91.2248 14.49333549892818
COSMOS 2251 DEB         
1 34878U 93036ACR 26087.71997040  .00000932  00000+0  92733-3 0  9991
2 34878  73.9632 239.1467 0435359 202.4872 177.4432 13.44326335826972
COSMOS 2251 DEB         
1 34882U 93036ACV 26087.24810391  .00000868  00000+0  17175-3 0  9992
2 34882  74.0482  23.8173 0081808 125.1311 235.7558 14.61818382900663
COSMOS 2251 DEB         
1 34883U 93036ACW 26088.13594990  .00016551  00000+0  36505-2 0  9999
2 34883  74.1967 223.8669 0090619  14.8071 345.5713 14.54802850879856
COSMOS 2251 DEB         
1 34884U 93036ACX 26088.05994566  .00038742  00000+0  33660-2 0  9999
2 34884  74.0139 202.5905 0006460 280.2056 255.9822 14.96802685893928
COSMOS 2251 DEB         
1 34885U 93036ACY 26088.14943104  .00002591  00000+0  64444-3 0  9990
2 34885  74.0335 342.5439 0013167  44.3949  78.3737 14.52205196890235
COSMOS 2251 DEB         
1 34886U 93036ACZ 26087.87226408  .00419061  00000+0  29696-2 0  9994
2 34886  73.9396 306.4070 0018135 124.8995 235.3937 15.72457890646448
COSMOS 2251 DEB         
1 34908U 93036ADD 26087.57061110  .00001650  00000+0  55082-3 0  9993
2 34908  74.0585 189.1112 0040566 183.5761 192.4455 14.37830476888007
COSMOS 2251 DEB         
1 34909U 93036ADE 26087.81460320  .00002951  00000+0  38446-3 0  9997
2 34909  74.0124 227.8834 0083543 335.1380  24.5779 14.78654446684196
COSMOS 2251 DEB         
1 34910U 93036ADF 26087.32840909  .00000727  00000+0  75442-3 0  9996
2 34910  73.8733 294.7812 0466658  35.5765 143.0425 13.37872560829368
COSMOS 2251 DEB         
1 34911U 93036ADG 26088.13800307  .00000628  00000+0  13228-3 0  9999
2 34911  74.0419  41.9299 0083004 141.9621 236.1956 14.59541713901392
COSMOS 2251 DEB         
1 34913U 93036ADJ 26087.33496677  .00000114  00000+0  49422-4 0  9999
2 34913  74.0255  88.9792 0021056 179.7487 242.9482 14.34671505667023
