[{"OBJECT_NAME":"COSMOS 2251 DEB","OBJECT_ID":"1993-036ACB","EPOCH":"2026-03-28T22:56:15.915264","MEAN_MOTION":14.59872203,"ECCENTRICITY":0.006424,"INCLINATION":74.0131,"RA_OF_ASC_NODE":264.0577,"ARG_OF_PERICENTER":1.3236,"MEAN_ANOMALY":159.761,"EPHEMERIS_TYPE":0,"CLASSIFICATION_TYPE":"U","NORAD_CAT_ID":34857,"ELEMENT_SET_NO":999,"REV_AT_EPOCH":89450,"BSTAR":0.00073495,"MEAN_MOTION_DOT":3.59e-5,"MEAN_MOTION_DDOT":0},{"OBJECT_NAME":"COSMOS 2251 DEB","OBJECT_ID":"1993-036ACD","EPOCH":"2026-03-28T01:02:28.846752","MEAN_MOTION":15.43674327,"ECCENTRICITY":0.00151688,"INCLINATION":74.0221,"RA_OF_ASC_NODE":117.106,"ARG_OF_PERICENTER":292.4957,"MEAN_ANOMALY":67.4646,"EPHEMERIS_TYPE":0,"CLASSIFICATION_TYPE":"U","NORAD_CAT_ID":34859,"ELEMENT_SET_NO":999,"REV_AT_EPOCH":89964,"BSTAR":0.0063337333,"MEAN_MOTION_DOT":0.00297951,"MEAN_MOTION_DDOT":0},{"OBJECT_NAME":"COSMOS 2251 DEB","OBJECT_ID":"1993-036ACF","EPOCH":"2026-03-28T17:42:09.448704","MEAN_MOTION":15.15559935,"ECCENTRICITY":0.0003623,"INCLINATION":74.0088,"RA_OF_ASC_NODE":192.1152,"ARG_OF_PERICENTER":300.3214,"MEAN_ANOMALY":211.2193,"EPHEMERIS_TYPE":0,"CLASSIFICATION_TYPE":"U","NORAD_CAT_ID":34861,"ELEMENT_SET_NO":999,"REV_AT_EPOCH":89691,"BSTAR":0.0036068703,"MEAN_MOTION_DOT":0.00069074,"MEAN_MOTION_DDOT":0},{"OBJECT_NAME":"COSMOS 2251 DEB","OBJECT_ID":"1993-036ACM","EPOCH":"2026-03-28T16:45:38.901024","MEAN_MOTION":14.36941519,"ECCENTRICITY":0.00517559,"INCLINATION":74.0375,"RA_OF_ASC_NODE":239.0569,"ARG_OF_PERICENTER":239.3505,"MEAN_ANOMALY":139.8423,"EPHEMERIS_TYPE":0,"CLASSIFICATION_TYPE":"U","NORAD_CAT_ID":34874,"ELEMENT_SET_NO":999,"REV_AT_EPOCH":88566,"BSTAR":0.00089453678,"MEAN_MOTION_DOT":2.664e-5,"MEAN_MOTION_DDOT":0},{"OBJECT_NAME":"COSMOS 2251 DEB","OBJECT_ID":"1993-036ACN","EPOCH":"2026-03-28T01:49:32.259648","MEAN_MOTION":14.49333549,"ECCENTRICITY":0.00143498,"INCLINATION":74.0446,"RA_OF_ASC_NODE":320.7924,"ARG_OF_PERICENTER":58.9771,"MEAN_ANOMALY":91.2248,"EPHEMERIS_TYPE":0,"CLASSIFICATION_TYPE":"U","NORAD_CAT_ID":34875,"ELEMENT_SET_NO":999,"REV_AT_EPOCH":89281,"BSTAR":0.0003402322,"MEAN_MOTION_DOT":1.274e-5,"MEAN_MOTION_DDOT":0},{"OBJECT_NAME":"COSMOS 2251 DEB","OBJECT_ID":"1993-036ACR","EPOCH":"2026-03-28T17:16:45.442560","MEAN_MOTION":13.44326335,"ECCENTRICITY":0.04353599,"INCLINATION":73.9632,"RA_OF_ASC_NODE":239.1467,"ARG_OF_PERICENTER":202.4872,"MEAN_ANOMALY":177.4432,"EPHEMERIS_TYPE":0,"CLASSIFICATION_TYPE":"U","NORAD_CAT_ID":34878,"ELEMENT_SET_NO":999,"REV_AT_EPOCH":82697,"BSTAR":0.00092732947,"MEAN_MOTION_DOT":9.32e-6,"MEAN_MOTION_DDOT":0},{"OBJECT_NAME":"COSMOS 2251 DEB","OBJECT_ID":"1993-036ACV","EPOCH":"2026-03-28T05:57:16.177824","MEAN_MOTION":14.61818382,"ECCENTRICITY":0.0081808,"INCLINATION":74.0482,"RA_OF_ASC_NODE":23.8173,"ARG_OF_PERICENTER":125.1311,"MEAN_ANOMALY":235.7558,"EPHEMERIS_TYPE":0,"CLASSIFICATION_TYPE":"U","NORAD_CAT_ID":34882,"ELEMENT_SET_NO":999,"REV_AT_EPOCH":90066,"BSTAR":0.00017175,"MEAN_MOTION_DOT":8.68e-6,"MEAN_MOTION_DDOT":0},{"OBJECT_NAME":"COSMOS 2251 DEB","OBJECT_ID":"1993-036ACW","EPOCH":"2026-03-29T03:15:46.071360","MEAN_MOTION":14.5480285,"ECCENTRICITY":0.0090619,"INCLINATION":74.1967,"RA_OF_ASC_NODE":223.8669,"ARG_OF_PERICENTER":14.8071,"MEAN_ANOMALY":345.5713,"EPHEMERIS_TYPE":0,"CLASSIFICATION_TYPE":"U","NORAD_CAT_ID":34883,"ELEMENT_SET_NO":999,"REV_AT_EPOCH":87985,"BSTAR":0.0036505,"MEAN_MOTION_DOT":0.00016551,"MEAN_MOTION_DDOT":0},{"OBJECT_NAME":"COSMOS 2251 DEB","OBJECT_ID":"1993-036ACX","EPOCH":"2026-03-29T01:26:19.305024","MEAN_MOTION":14.96802685,"ECCENTRICITY":0.000646,"INCLINATION":74.0139,"RA_OF_ASC_NODE":202.5905,"ARG_OF_PERICENTER":280.2056,"MEAN_ANOMALY":255.9822,"EPHEMERIS_TYPE":0,"CLASSIFICATION_TYPE":"U","NORAD_CAT_ID":34884,"ELEMENT_SET_NO":999,"REV_AT_EPOCH":89392,"BSTAR":0.003366,"MEAN_MOTION_DOT":0.00038742,"MEAN_MOTION_DDOT":0},{"OBJECT_NAME":"COSMOS 2251 DEB","OBJECT_ID":"1993-036ACY","EPOCH":"2026-03-29T03:35:10.841856","MEAN_MOTION":14.52205196,"ECCENTRICITY":0.0013167,"INCLINATION":74.0335,"RA_OF_ASC_NODE":342.5439,"ARG_OF_PERICENTER":44.3949,"MEAN_ANOMALY":78.3737,"EPHEMERIS_TYPE":0,"CLASSIFICATION_TYPE":"U","NORAD_CAT_ID":34885,"ELEMENT_SET_NO":999,"REV_AT_EPOCH":89023,"BSTAR":0.00064444,"MEAN_MOTION_DOT":2.591e-5,"MEAN_MOTION_DDOT":0},{"OBJECT_NAME":"COSMOS 2251 DEB","OBJECT_ID":"1993-036ACZ","EPOCH":"2026-03-28T20:56:03.616512","MEAN_MOTION":15.7245789,"ECCENTRICITY":0.00181354,"INCLINATION":73.9396,"RA_OF_ASC_NODE":306.407,"ARG_OF_PERICENTER":124.8995,"MEAN_ANOMALY":235.3937,"EPHEMERIS_TYPE":0,"CLASSIFICATION_TYPE":"U","NORAD_CAT_ID":34886,"ELEMENT_SET_NO":999,"REV_AT_EPOCH":64644,"BSTAR":0.0029696077,"MEAN_MOTION_DOT":0.00419061,"MEAN_MOTION_DDOT":0},{"OBJECT_NAME":"COSMOS 2251 DEB","OBJECT_ID":"1993-036ADD","EPOCH":"2026-03-28T13:41:40.799040","MEAN_MOTION":14.37830476,"ECCENTRICITY":0.0040566,"INCLINATION":74.0585,"RA_OF_ASC_NODE":189.1112,"ARG_OF_PERICENTER":183.5761,"MEAN_ANOMALY":192.4455,"EPHEMERIS_TYPE":0,"CLASSIFICATION_TYPE":"U","NORAD_CAT_ID":34908,"ELEMENT_SET_NO":999,"REV_AT_EPOCH":88800,"BSTAR":0.00055082,"MEAN_MOTION_DOT":1.65e-5,"MEAN_MOTION_DDOT":0},{"OBJECT_NAME":"COSMOS 2251 DEB","OBJECT_ID":"1993-036ADE","EPOCH":"2026-03-28T19:33:01.716480","MEAN_MOTION":14.78654446,"ECCENTRICITY":0.00835434,"INCLINATION":74.0124,"RA_OF_ASC_NODE":227.8834,"ARG_OF_PERICENTER":335.138,"MEAN_ANOMALY":24.5779,"EPHEMERIS_TYPE":0,"CLASSIFICATION_TYPE":"U","NORAD_CAT_ID":34909,"ELEMENT_SET_NO":999,"REV_AT_EPOCH":68419,"BSTAR":0.0003844603,"MEAN_MOTION_DOT":2.951e-5,"MEAN_MOTION_DDOT":0},{"OBJECT_NAME":"COSMOS 2251 DEB","OBJECT_ID":"1993-036ADF","EPOCH":"2026-03-28T07:52:54.545376","MEAN_MOTION":13.3787256,"ECCENTRICITY":0.0466658,"INCLINATION":73.8733,"RA_OF_ASC_NODE":294.7812,"ARG_OF_PERICENTER":35.5765,"MEAN_ANOMALY":143.0425,"EPHEMERIS_TYPE":0,"CLASSIFICATION_TYPE":"U","NORAD_CAT_ID":34910,"ELEMENT_SET_NO":999,"REV_AT_EPOCH":82936,"BSTAR":0.00075442,"MEAN_MOTION_DOT":7.27e-6,"MEAN_MOTION_DDOT":0},{"OBJECT_NAME":"COSMOS 2251 DEB","OBJECT_ID":"1993-036ADG","EPOCH":"2026-03-29T03:18:43.465248","MEAN_MOTION":14.59541713,"ECCENTRICITY":0.0083004,"INCLINATION":74.0419,"RA_OF_ASC_NODE":41.9299,"ARG_OF_PERICENTER":141.9621,"MEAN_ANOMALY":236.1956,"EPHEMERIS_TYPE":0,"CLASSIFICATION_TYPE":"U","NORAD_CAT_ID":34911,"ELEMENT_SET_NO":999,"REV_AT_EPOCH":90139,"BSTAR":0.00013228,"MEAN_MOTION_DOT":6.28e-6,"MEAN_MOTION_DDOT":0},{"OBJECT_NAME":"COSMOS 2251 DEB","OBJECT_ID":"1993-036ADJ","EPOCH":"2026-03-28T08:02:21.128928","MEAN_MOTION":14.34671505,"ECCENTRICITY":0.00210568,"INCLINATION":74.0255,"RA_OF_ASC_NODE":88.9792,"ARG_OF_PERICENTER":179.7487,"MEAN_ANOMALY":242.9482,"EPHEMERIS_TYPE":0,"CLASSIFICATION_TYPE":"U","NORAD_CAT_ID":34913,"ELEMENT_SET_NO":999,"REV_AT_EPOCH":66702,"BSTAR":4.942174e-5,"MEAN_MOTION_DOT":1.14e-6,"MEAN_MOTION_DDOT":0}]
